[{"OBJECT_NAME":"STARLINK-4141","OBJECT_ID":"2022-083G","EPOCH":"2026-03-09T14:28:53.151744","MEAN_MOTION":15.08827996,"ECCENTRICITY":0.0001298,"INCLINATION":53.2178,"RA_OF_ASC_NODE":169.69,"ARG_OF_PERICENTER":88.4407,"MEAN_ANOMALY":271.6733,"EPHEMERIS_TYPE":0,"CLASSIFICATION_TYPE":"U","NORAD_CAT_ID":53138,"ELEMENT_SET_NO":999,"REV_AT_EPOCH":20204,"BSTAR":0.00013861,"MEAN_MOTION_DOT":1.918e-5,"MEAN_MOTION_DDOT":0},{"OBJECT_NAME":"CZ-4 DEB","OBJECT_ID":"2006-046J","EPOCH":"2026-03-09T18:53:15.937728","MEAN_MOTION":15.02015872,"ECCENTRICITY":0.00905092,"INCLINATION":97.813,"RA_OF_ASC_NODE":3.4349,"ARG_OF_PERICENTER":91.2796,"MEAN_ANOMALY":323.9331,"EPHEMERIS_TYPE":0,"CLASSIFICATION_TYPE":"U","NORAD_CAT_ID":35376,"ELEMENT_SET_NO":999,"REV_AT_EPOCH":2538,"BSTAR":0.001704414,"MEAN_MOTION_DOT":0.00024412,"MEAN_MOTION_DDOT":0}]
